[{"OBJECT_NAME":"STARLINK-11082 [DTC]","OBJECT_ID":"2024-088D","EPOCH":"2026-03-09T23:16:52.974048","MEAN_MOTION":15.69694796,"ECCENTRICITY":0.0001031,"INCLINATION":53.1598,"RA_OF_ASC_NODE":325.0821,"ARG_OF_PERICENTER":106.5532,"MEAN_ANOMALY":253.5599,"EPHEMERIS_TYPE":0,"CLASSIFICATION_TYPE":"U","NORAD_CAT_ID":59711,"ELEMENT_SET_NO":999,"REV_AT_EPOCH":10631,"BSTAR":8.31882e-6,"MEAN_MOTION_DOT":4.19e-6,"MEAN_MOTION_DDOT":0},{"OBJECT_NAME":"FLOCK 4BE-16","OBJECT_ID":"2024-149R","EPOCH":"2026-03-09T18:09:47.863872","MEAN_MOTION":15.69331853,"ECCENTRICITY":0.0006629,"INCLINATION":97.3709,"RA_OF_ASC_NODE":154.3606,"ARG_OF_PERICENTER":231.2674,"MEAN_ANOMALY":128.7996,"EPHEMERIS_TYPE":0,"CLASSIFICATION_TYPE":"U","NORAD_CAT_ID":60483,"ELEMENT_SET_NO":999,"REV_AT_EPOCH":8717,"BSTAR":0.0016709449,"MEAN_MOTION_DOT":0.00199478,"MEAN_MOTION_DDOT":0}]
